APRIZESAT 2             
1 28366U 04025A   26115.89112401  .00000177  00000+0  67634-4 0  9991
2 28366  98.0974 284.8443 0106537  48.4742 312.5526 14.38017224144126
SAUDICOMSAT 1           
1 28369U 04025D   26115.90570255  .00000339  00000+0  88915-4 0  9996
2 28369  98.5794 124.6244 0032127 181.4831 178.6275 14.55432107156523
SAUDICOMSAT 2           
1 28370U 04025E   26115.95584613  .00000352  00000+0  10170-3 0  9998
2 28370  98.6665 126.7217 0056450  58.4242 302.2445 14.49945870152530
APRIZESAT 1             
1 28372U 04025G   26115.63830807  .00000207  00000+0  63180-4 0  9993
2 28372  98.6326 124.9286 0043704 316.2330  43.5403 14.51749256154289
NANOSAT-1               
1 28493U 04049B   26115.84391555  .00001161  00000+0  16053-3 0  9994
2 28493  98.2194 251.2521 0005310  99.9118 260.2693 14.80050036147709
SAUDICOMSAT 7           
1 31119U 07012C   26115.90190311  .00000775  00000+0  14778-3 0  9992
2 31119  98.3745  88.9761 0055828   1.7469 358.3919 14.66048310 14777
SAUDICOMSAT 6           
1 31121U 07012E   26115.88947830  .00000543  00000+0  11323-3 0  9994
2 31121  98.4060  82.4502 0072808 128.9748 231.7969 14.62490369 12545
SAUDICOMSAT 5           
1 31124U 07012H   26115.87968272  .00000700  00000+0  12934-3 0  9993
2 31124  98.3457  89.7116 0046173 290.8811  68.7453 14.68093431 15920
SAUDICOMSAT 3           
1 31125U 07012J   26115.86242752  .00000733  00000+0  12806-3 0  9995
2 31125  98.3111  90.2491 0038306 215.9243 143.9387 14.70624885 17130
SAUDICOMSAT 4           
1 31127U 07012L   26115.88695877  .00000758  00000+0  14880-3 0  9990
2 31127  98.3949  87.4061 0064670  62.3360 298.4386 14.64443929 13636
APRIZESAT 4             
1 35684U 09041D   26115.72634659  .00000758  00000+0  96939-4 0  9996
2 35684  98.1424 190.0017 0044421 130.7481 229.7603 14.83797081903585
APRIZESAT 3             
1 35686U 09041F   26115.93296260  .00001229  00000+0  11139-3 0  9995
2 35686  98.1994 266.6804 0060870 239.1237 120.3988 14.96057885908562
S-NET D                 
1 43186U 18014G   26115.73833631  .00005233  00000+0  27447-3 0  9994
2 43186  97.5397  20.8664 0007843 187.9824 172.1285 15.16166418450814
S-NET B                 
1 43187U 18014H   26115.68276867  .00005283  00000+0  27729-3 0  9999
2 43187  97.5403  20.7960 0008589 184.5415 175.5741 15.16135857450804
S-NET A                 
1 43188U 18014J   26115.73746654  .00005247  00000+0  27510-3 0  9990
2 43188  97.5415  21.0494 0008479 184.7608 175.3545 15.16173315450810
S-NET C                 
1 43189U 18014K   26115.75235310  .00005355  00000+0  28099-3 0  9998
2 43189  97.5430  21.1309 0010069 178.9352 181.1904 15.16128162449365
SALSAT                  
1 46495U 20068K   26115.93492936  .00009598  00000+0  34294-3 0  9999
2 46495  97.8865 115.8517 0011523 121.2153 239.0216 15.29005761307377
