[{"OBJECT_NAME":"APRIZESAT 2","OBJECT_ID":"2004-025A","EPOCH":"2026-04-25T21:23:13.114464","MEAN_MOTION":14.38017224,"ECCENTRICITY":0.01065372,"INCLINATION":98.0974,"RA_OF_ASC_NODE":284.8443,"ARG_OF_PERICENTER":48.4742,"MEAN_ANOMALY":312.5526,"EPHEMERIS_TYPE":0,"CLASSIFICATION_TYPE":"U","NORAD_CAT_ID":28366,"ELEMENT_SET_NO":999,"REV_AT_EPOCH":14412,"BSTAR":6.7633944e-5,"MEAN_MOTION_DOT":1.77e-6,"MEAN_MOTION_DDOT":0},{"OBJECT_NAME":"SAUDICOMSAT 1","OBJECT_ID":"2004-025D","EPOCH":"2026-04-25T21:44:12.700320","MEAN_MOTION":14.55432107,"ECCENTRICITY":0.00321273,"INCLINATION":98.5794,"RA_OF_ASC_NODE":124.6244,"ARG_OF_PERICENTER":181.4831,"MEAN_ANOMALY":178.6275,"EPHEMERIS_TYPE":0,"CLASSIFICATION_TYPE":"U","NORAD_CAT_ID":28369,"ELEMENT_SET_NO":999,"REV_AT_EPOCH":15652,"BSTAR":8.891511e-5,"MEAN_MOTION_DOT":3.39e-6,"MEAN_MOTION_DDOT":0},{"OBJECT_NAME":"SAUDICOMSAT 2","OBJECT_ID":"2004-025E","EPOCH":"2026-04-25T22:56:25.105632","MEAN_MOTION":14.4994587,"ECCENTRICITY":0.00564506,"INCLINATION":98.6665,"RA_OF_ASC_NODE":126.7217,"ARG_OF_PERICENTER":58.4242,"MEAN_ANOMALY":302.2445,"EPHEMERIS_TYPE":0,"CLASSIFICATION_TYPE":"U","NORAD_CAT_ID":28370,"ELEMENT_SET_NO":999,"REV_AT_EPOCH":15253,"BSTAR":0.00010169684,"MEAN_MOTION_DOT":3.52e-6,"MEAN_MOTION_DDOT":0},{"OBJECT_NAME":"APRIZESAT 1","OBJECT_ID":"2004-025G","EPOCH":"2026-04-25T15:19:09.817248","MEAN_MOTION":14.51749256,"ECCENTRICITY":0.00437048,"INCLINATION":98.6326,"RA_OF_ASC_NODE":124.9286,"ARG_OF_PERICENTER":316.233,"MEAN_ANOMALY":43.5403,"EPHEMERIS_TYPE":0,"CLASSIFICATION_TYPE":"U","NORAD_CAT_ID":28372,"ELEMENT_SET_NO":999,"REV_AT_EPOCH":15428,"BSTAR":6.3180088e-5,"MEAN_MOTION_DOT":2.07e-6,"MEAN_MOTION_DDOT":0},{"OBJECT_NAME":"NANOSAT-1","OBJECT_ID":"2004-049B","EPOCH":"2026-04-25T20:15:14.303520","MEAN_MOTION":14.80050036,"ECCENTRICITY":0.00053107,"INCLINATION":98.2194,"RA_OF_ASC_NODE":251.2521,"ARG_OF_PERICENTER":99.9118,"MEAN_ANOMALY":260.2693,"EPHEMERIS_TYPE":0,"CLASSIFICATION_TYPE":"U","NORAD_CAT_ID":28493,"ELEMENT_SET_NO":999,"REV_AT_EPOCH":14770,"BSTAR":0.00016053339,"MEAN_MOTION_DOT":1.161e-5,"MEAN_MOTION_DDOT":0},{"OBJECT_NAME":"SAUDICOMSAT 7","OBJECT_ID":"2007-012C","EPOCH":"2026-04-25T21:38:44.428704","MEAN_MOTION":14.6604831,"ECCENTRICITY":0.0055828,"INCLINATION":98.3745,"RA_OF_ASC_NODE":88.9761,"ARG_OF_PERICENTER":1.7469,"MEAN_ANOMALY":358.3919,"EPHEMERIS_TYPE":0,"CLASSIFICATION_TYPE":"U","NORAD_CAT_ID":31119,"ELEMENT_SET_NO":999,"REV_AT_EPOCH":1477,"BSTAR":0.00014778101,"MEAN_MOTION_DOT":7.75e-6,"MEAN_MOTION_DDOT":0},{"OBJECT_NAME":"SAUDICOMSAT 6","OBJECT_ID":"2007-012E","EPOCH":"2026-04-25T21:20:50.925120","MEAN_MOTION":14.62490369,"ECCENTRICITY":0.00728087,"INCLINATION":98.406,"RA_OF_ASC_NODE":82.4502,"ARG_OF_PERICENTER":128.9748,"MEAN_ANOMALY":231.7969,"EPHEMERIS_TYPE":0,"CLASSIFICATION_TYPE":"U","NORAD_CAT_ID":31121,"ELEMENT_SET_NO":999,"REV_AT_EPOCH":1254,"BSTAR":0.00011322959,"MEAN_MOTION_DOT":5.43e-6,"MEAN_MOTION_DDOT":0},{"OBJECT_NAME":"SAUDICOMSAT 5","OBJECT_ID":"2007-012H","EPOCH":"2026-04-25T21:06:44.587008","MEAN_MOTION":14.68093431,"ECCENTRICITY":0.00461735,"INCLINATION":98.3457,"RA_OF_ASC_NODE":89.7116,"ARG_OF_PERICENTER":290.8811,"MEAN_ANOMALY":68.7453,"EPHEMERIS_TYPE":0,"CLASSIFICATION_TYPE":"U","NORAD_CAT_ID":31124,"ELEMENT_SET_NO":999,"REV_AT_EPOCH":1592,"BSTAR":0.00012934473,"MEAN_MOTION_DOT":7.0e-6,"MEAN_MOTION_DDOT":0},{"OBJECT_NAME":"SAUDICOMSAT 3","OBJECT_ID":"2007-012J","EPOCH":"2026-04-25T20:41:53.737728","MEAN_MOTION":14.70624885,"ECCENTRICITY":0.00383065,"INCLINATION":98.3111,"RA_OF_ASC_NODE":90.2491,"ARG_OF_PERICENTER":215.9243,"MEAN_ANOMALY":143.9387,"EPHEMERIS_TYPE":0,"CLASSIFICATION_TYPE":"U","NORAD_CAT_ID":31125,"ELEMENT_SET_NO":999,"REV_AT_EPOCH":1713,"BSTAR":0.0001280613,"MEAN_MOTION_DOT":7.33e-6,"MEAN_MOTION_DDOT":0},{"OBJECT_NAME":"SAUDICOMSAT 4","OBJECT_ID":"2007-012L","EPOCH":"2026-04-25T21:17:13.237728","MEAN_MOTION":14.64443929,"ECCENTRICITY":0.00646702,"INCLINATION":98.3949,"RA_OF_ASC_NODE":87.4061,"ARG_OF_PERICENTER":62.336,"MEAN_ANOMALY":298.4386,"EPHEMERIS_TYPE":0,"CLASSIFICATION_TYPE":"U","NORAD_CAT_ID":31127,"ELEMENT_SET_NO":999,"REV_AT_EPOCH":1363,"BSTAR":0.00014879824,"MEAN_MOTION_DOT":7.58e-6,"MEAN_MOTION_DDOT":0},{"OBJECT_NAME":"APRIZESAT 4","OBJECT_ID":"2009-041D","EPOCH":"2026-04-25T17:25:56.345376","MEAN_MOTION":14.83797081,"ECCENTRICITY":0.00444215,"INCLINATION":98.1424,"RA_OF_ASC_NODE":190.0017,"ARG_OF_PERICENTER":130.7481,"MEAN_ANOMALY":229.7603,"EPHEMERIS_TYPE":0,"CLASSIFICATION_TYPE":"U","NORAD_CAT_ID":35684,"ELEMENT_SET_NO":999,"REV_AT_EPOCH":90358,"BSTAR":9.6938797e-5,"MEAN_MOTION_DOT":7.58e-6,"MEAN_MOTION_DDOT":0},{"OBJECT_NAME":"APRIZESAT 3","OBJECT_ID":"2009-041F","EPOCH":"2026-04-25T22:23:27.968640","MEAN_MOTION":14.96057885,"ECCENTRICITY":0.00608702,"INCLINATION":98.1994,"RA_OF_ASC_NODE":266.6804,"ARG_OF_PERICENTER":239.1237,"MEAN_ANOMALY":120.3988,"EPHEMERIS_TYPE":0,"CLASSIFICATION_TYPE":"U","NORAD_CAT_ID":35686,"ELEMENT_SET_NO":999,"REV_AT_EPOCH":90856,"BSTAR":0.00011138918,"MEAN_MOTION_DOT":1.229e-5,"MEAN_MOTION_DDOT":0},{"OBJECT_NAME":"S-NET D","OBJECT_ID":"2018-014G","EPOCH":"2026-04-25T17:43:12.257184","MEAN_MOTION":15.16166418,"ECCENTRICITY":0.00078434,"INCLINATION":97.5397,"RA_OF_ASC_NODE":20.8664,"ARG_OF_PERICENTER":187.9824,"MEAN_ANOMALY":172.1285,"EPHEMERIS_TYPE":0,"CLASSIFICATION_TYPE":"U","NORAD_CAT_ID":43186,"ELEMENT_SET_NO":999,"REV_AT_EPOCH":45081,"BSTAR":0.00027447118,"MEAN_MOTION_DOT":5.233e-5,"MEAN_MOTION_DDOT":0},{"OBJECT_NAME":"S-NET B","OBJECT_ID":"2018-014H","EPOCH":"2026-04-25T16:23:11.213088","MEAN_MOTION":15.16135857,"ECCENTRICITY":0.00085898,"INCLINATION":97.5403,"RA_OF_ASC_NODE":20.796,"ARG_OF_PERICENTER":184.5415,"MEAN_ANOMALY":175.5741,"EPHEMERIS_TYPE":0,"CLASSIFICATION_TYPE":"U","NORAD_CAT_ID":43187,"ELEMENT_SET_NO":999,"REV_AT_EPOCH":45080,"BSTAR":0.00027729012,"MEAN_MOTION_DOT":5.283e-5,"MEAN_MOTION_DDOT":0},{"OBJECT_NAME":"S-NET A","OBJECT_ID":"2018-014J","EPOCH":"2026-04-25T17:41:57.109056","MEAN_MOTION":15.16173315,"ECCENTRICITY":0.00084799,"INCLINATION":97.5415,"RA_OF_ASC_NODE":21.0494,"ARG_OF_PERICENTER":184.7608,"MEAN_ANOMALY":175.3545,"EPHEMERIS_TYPE":0,"CLASSIFICATION_TYPE":"U","NORAD_CAT_ID":43188,"ELEMENT_SET_NO":999,"REV_AT_EPOCH":45081,"BSTAR":0.00027510442,"MEAN_MOTION_DOT":5.247e-5,"MEAN_MOTION_DDOT":0},{"OBJECT_NAME":"S-NET C","OBJECT_ID":"2018-014K","EPOCH":"2026-04-25T18:03:23.307840","MEAN_MOTION":15.16128162,"ECCENTRICITY":0.00100699,"INCLINATION":97.543,"RA_OF_ASC_NODE":21.1309,"ARG_OF_PERICENTER":178.9352,"MEAN_ANOMALY":181.1904,"EPHEMERIS_TYPE":0,"CLASSIFICATION_TYPE":"U","NORAD_CAT_ID":43189,"ELEMENT_SET_NO":999,"REV_AT_EPOCH":44936,"BSTAR":0.00028098821,"MEAN_MOTION_DOT":5.355e-5,"MEAN_MOTION_DDOT":0},{"OBJECT_NAME":"SALSAT","OBJECT_ID":"2020-068K","EPOCH":"2026-04-25T22:26:17.896704","MEAN_MOTION":15.29005761,"ECCENTRICITY":0.00115234,"INCLINATION":97.8865,"RA_OF_ASC_NODE":115.8517,"ARG_OF_PERICENTER":121.2153,"MEAN_ANOMALY":239.0216,"EPHEMERIS_TYPE":0,"CLASSIFICATION_TYPE":"U","NORAD_CAT_ID":46495,"ELEMENT_SET_NO":999,"REV_AT_EPOCH":30737,"BSTAR":0.00034294036,"MEAN_MOTION_DOT":9.598e-5,"MEAN_MOTION_DDOT":0}]
